{
    "links": {
        "self": "http://www.neowsapp.com/rest/v1/neo/3151645?api_key=iIulBulltgU6a56xZRHN4H3l9WmuAYTsLGpBGhQ2"
    },
    "id": "3151645",
    "neo_reference_id": "3151645",
    "name": "(2003 FV3)",
    "designation": "2003 FV3",
    "nasa_jpl_url": "http://ssd.jpl.nasa.gov/sbdb.cgi?sstr=3151645",
    "absolute_magnitude_h": 20.8,
    "estimated_diameter": {
        "kilometers": {
            "estimated_diameter_min": 0.1838886721,
            "estimated_diameter_max": 0.411187571
        },
        "meters": {
            "estimated_diameter_min": 183.8886720703,
            "estimated_diameter_max": 411.1875710413
        },
        "miles": {
            "estimated_diameter_min": 0.1142630881,
            "estimated_diameter_max": 0.2555000322
        },
        "feet": {
            "estimated_diameter_min": 603.309310875,
            "estimated_diameter_max": 1349.040630575
        }
    },
    "is_potentially_hazardous_asteroid": false,
    "close_approach_data": [
        {
            "close_approach_date": "2003-03-17",
            "close_approach_date_full": "2003-Mar-17 22:00",
            "epoch_date_close_approach": 1047938400000,
            "relative_velocity": {
                "kilometers_per_second": "11.7558668293",
                "kilometers_per_hour": "42321.1205854613",
                "miles_per_hour": "26296.6985104495"
            },
            "miss_distance": {
                "astronomical": "0.3051090259",
                "lunar": "118.6874110751",
                "kilometers": "45643660.392414833",
                "miles": "28361655.4204093754"
            },
            "orbiting_body": "Earth"
        }
    ],
    "orbital_data": {
        "orbit_id": "15",
        "orbit_determination_date": "2017-04-06 09:14:14",
        "first_observation_date": "2003-03-26",
        "last_observation_date": "2003-04-21",
        "data_arc_in_days": 26,
        "observations_used": 62,
        "orbit_uncertainty": "7",
        "minimum_orbit_intersection": ".269903",
        "jupiter_tisserand_invariant": "3.433",
        "epoch_osculation": "2459000.5",
        "eccentricity": ".4830147652026792",
        "semi_major_axis": "2.184341866127068",
        "inclination": "22.13822890607646",
        "ascending_node_longitude": "16.558350446",
        "orbital_period": "1179.17792819913",
        "perihelion_distance": "1.12927249253732",
        "perihelion_argument": "119.4264758152381",
        "aphelion_distance": "3.239411239716816",
        "perihelion_time": "2458557.606262921184",
        "mean_anomaly": "135.2143230766515",
        "mean_motion": ".3052974376392892",
        "equinox": "J2000",
        "orbit_class": {
            "orbit_class_type": "AMO",
            "orbit_class_description": "Near-Earth asteroid orbits similar to that of 1221 Amor",
            "orbit_class_range": "1.017 AU < q (perihelion) < 1.3 AU"
        }
    },
    "is_sentry_object": false
}